[{"OBJECT_NAME":"STARLINK-34753","OBJECT_ID":"2025-158Q","EPOCH":"2026-03-09T12:46:56.989056","MEAN_MOTION":15.05632043,"ECCENTRICITY":0.00024659,"INCLINATION":97.6014,"RA_OF_ASC_NODE":293.9507,"ARG_OF_PERICENTER":87.4876,"MEAN_ANOMALY":272.6633,"EPHEMERIS_TYPE":0,"CLASSIFICATION_TYPE":"U","NORAD_CAT_ID":64946,"ELEMENT_SET_NO":999,"REV_AT_EPOCH":3533,"BSTAR":0.00036344434,"MEAN_MOTION_DOT":5.185e-5,"MEAN_MOTION_DDOT":0},{"OBJECT_NAME":"ELECTRON KICK STAGE R\/B","OBJECT_ID":"2024-114G","EPOCH":"2026-03-09T16:42:35.427168","MEAN_MOTION":15.12630878,"ECCENTRICITY":0.00674954,"INCLINATION":97.9507,"RA_OF_ASC_NODE":118.387,"ARG_OF_PERICENTER":79.3604,"MEAN_ANOMALY":281.5218,"EPHEMERIS_TYPE":0,"CLASSIFICATION_TYPE":"U","NORAD_CAT_ID":60085,"ELEMENT_SET_NO":999,"REV_AT_EPOCH":9434,"BSTAR":0.00053349816,"MEAN_MOTION_DOT":9.787e-5,"MEAN_MOTION_DDOT":0}]
